FLOCK 4BE-8             
1 60515U 24149AZ  25068.78306361  .00019543  00000+0  77796-3 0  9992
2 60515  97.4130 147.7701 0006437 144.5063 215.6604 15.25271736 31178
FLOCK 4BE-6             
1 60516U 24149BA  25068.79193450  .00017575  00000+0  70443-3 0  9992
2 60516  97.4191 147.9185 0005656 148.4750 211.6828 15.25069908 31172
FLOCK 4BE-14            
1 60517U 24149BB  25068.79574850  .00018830  00000+0  74206-3 0  9996
2 60517  97.4123 147.9020 0007224 145.8033 214.3672 15.25612139 31182
FLOCK 4BE-1             
1 60518U 24149BC  25068.76376783  .00017715  00000+0  68754-3 0  9991
2 60518  97.4174 148.0757 0006208 145.8565 214.3073 15.26140524 31189
FLOCK 4BE-28            
1 60519U 24149BD  25068.74897636  .00023718  00000+0  90110-3 0  9996
2 60519  97.4140 148.0009 0006683 147.6722 212.4927 15.26787344 31189
FLOCK 4BE-35            
1 60558U 24149CU  25068.78901916  .00017609  00000+0  70323-3 0  9996
2 60558  97.4170 147.8998 0004612 142.1745 217.9817 15.25194801 31170
FLOCK 4BE-5             
1 60559U 24149CV  25068.78729511  .00015589  00000+0  62386-3 0  9991
2 60559  97.4209 147.9644 0005057 144.6852 215.4722 15.25149359 31179
FLOCK 4BE-12            
1 60560U 24149CW  25068.79455251  .00018446  00000+0  71528-3 0  9994
2 60560  97.4133 147.9135 0005792 144.5769 215.5855 15.26164277 31180
FLOCK 4BE-3             
1 60561U 24149CX  25068.75139231  .00019827  00000+0  77653-3 0  9997
2 60561  97.4114 147.7794 0006749 141.5087 218.6634 15.25811646 31178
FLOCK 4BE-19            
1 60563U 24149CZ  25068.75328548  .00021214  00000+0  81091-3 0  9994
2 60563  97.4134 147.9810 0006208 146.8945 213.2684 15.26609372 31183
