[{"OBJECT_NAME":"FLOCK 4BE-8","OBJECT_ID":"2024-149AZ","EPOCH":"2025-03-09T18:47:36.695904","MEAN_MOTION":15.25271736,"ECCENTRICITY":0.0006437,"INCLINATION":97.413,"RA_OF_ASC_NODE":147.7701,"ARG_OF_PERICENTER":144.5063,"MEAN_ANOMALY":215.6604,"EPHEMERIS_TYPE":0,"CLASSIFICATION_TYPE":"U","NORAD_CAT_ID":60515,"ELEMENT_SET_NO":999,"REV_AT_EPOCH":3117,"BSTAR":0.00077796,"MEAN_MOTION_DOT":0.00019543,"MEAN_MOTION_DDOT":0},{"OBJECT_NAME":"FLOCK 4BE-6","OBJECT_ID":"2024-149BA","EPOCH":"2025-03-09T19:00:23.140800","MEAN_MOTION":15.25069908,"ECCENTRICITY":0.0005656,"INCLINATION":97.4191,"RA_OF_ASC_NODE":147.9185,"ARG_OF_PERICENTER":148.475,"MEAN_ANOMALY":211.6828,"EPHEMERIS_TYPE":0,"CLASSIFICATION_TYPE":"U","NORAD_CAT_ID":60516,"ELEMENT_SET_NO":999,"REV_AT_EPOCH":3117,"BSTAR":0.00070443,"MEAN_MOTION_DOT":0.00017575,"MEAN_MOTION_DDOT":0},{"OBJECT_NAME":"FLOCK 4BE-14","OBJECT_ID":"2024-149BB","EPOCH":"2025-03-09T19:05:52.670400","MEAN_MOTION":15.25612139,"ECCENTRICITY":0.0007224,"INCLINATION":97.4123,"RA_OF_ASC_NODE":147.902,"ARG_OF_PERICENTER":145.8033,"MEAN_ANOMALY":214.3672,"EPHEMERIS_TYPE":0,"CLASSIFICATION_TYPE":"U","NORAD_CAT_ID":60517,"ELEMENT_SET_NO":999,"REV_AT_EPOCH":3118,"BSTAR":0.00074206,"MEAN_MOTION_DOT":0.0001883,"MEAN_MOTION_DDOT":0},{"OBJECT_NAME":"FLOCK 4BE-1","OBJECT_ID":"2024-149BC","EPOCH":"2025-03-09T18:19:49.540512","MEAN_MOTION":15.26140524,"ECCENTRICITY":0.0006208,"INCLINATION":97.4174,"RA_OF_ASC_NODE":148.0757,"ARG_OF_PERICENTER":145.8565,"MEAN_ANOMALY":214.3073,"EPHEMERIS_TYPE":0,"CLASSIFICATION_TYPE":"U","NORAD_CAT_ID":60518,"ELEMENT_SET_NO":999,"REV_AT_EPOCH":3118,"BSTAR":0.00068754,"MEAN_MOTION_DOT":0.00017715,"MEAN_MOTION_DDOT":0},{"OBJECT_NAME":"FLOCK 4BE-28","OBJECT_ID":"2024-149BD","EPOCH":"2025-03-09T17:58:31.557504","MEAN_MOTION":15.26787344,"ECCENTRICITY":0.0006683,"INCLINATION":97.414,"RA_OF_ASC_NODE":148.0009,"ARG_OF_PERICENTER":147.6722,"MEAN_ANOMALY":212.4927,"EPHEMERIS_TYPE":0,"CLASSIFICATION_TYPE":"U","NORAD_CAT_ID":60519,"ELEMENT_SET_NO":999,"REV_AT_EPOCH":3118,"BSTAR":0.0009011,"MEAN_MOTION_DOT":0.00023718,"MEAN_MOTION_DDOT":0},{"OBJECT_NAME":"FLOCK 4BE-35","OBJECT_ID":"2024-149CU","EPOCH":"2025-03-09T18:56:11.255424","MEAN_MOTION":15.25194801,"ECCENTRICITY":0.0004612,"INCLINATION":97.417,"RA_OF_ASC_NODE":147.8998,"ARG_OF_PERICENTER":142.1745,"MEAN_ANOMALY":217.9817,"EPHEMERIS_TYPE":0,"CLASSIFICATION_TYPE":"U","NORAD_CAT_ID":60558,"ELEMENT_SET_NO":999,"REV_AT_EPOCH":3117,"BSTAR":0.00070323,"MEAN_MOTION_DOT":0.00017609,"MEAN_MOTION_DDOT":0},{"OBJECT_NAME":"FLOCK 4BE-5","OBJECT_ID":"2024-149CV","EPOCH":"2025-03-09T18:53:42.297504","MEAN_MOTION":15.25149359,"ECCENTRICITY":0.0005057,"INCLINATION":97.4209,"RA_OF_ASC_NODE":147.9644,"ARG_OF_PERICENTER":144.6852,"MEAN_ANOMALY":215.4722,"EPHEMERIS_TYPE":0,"CLASSIFICATION_TYPE":"U","NORAD_CAT_ID":60559,"ELEMENT_SET_NO":999,"REV_AT_EPOCH":3117,"BSTAR":0.00062386,"MEAN_MOTION_DOT":0.00015589,"MEAN_MOTION_DDOT":0},{"OBJECT_NAME":"FLOCK 4BE-12","OBJECT_ID":"2024-149CW","EPOCH":"2025-03-09T19:04:09.336864","MEAN_MOTION":15.26164277,"ECCENTRICITY":0.0005792,"INCLINATION":97.4133,"RA_OF_ASC_NODE":147.9135,"ARG_OF_PERICENTER":144.5769,"MEAN_ANOMALY":215.5855,"EPHEMERIS_TYPE":0,"CLASSIFICATION_TYPE":"U","NORAD_CAT_ID":60560,"ELEMENT_SET_NO":999,"REV_AT_EPOCH":3118,"BSTAR":0.00071528,"MEAN_MOTION_DOT":0.00018446,"MEAN_MOTION_DDOT":0},{"OBJECT_NAME":"FLOCK 4BE-3","OBJECT_ID":"2024-149CX","EPOCH":"2025-03-09T18:02:00.295584","MEAN_MOTION":15.25811646,"ECCENTRICITY":0.0006749,"INCLINATION":97.4114,"RA_OF_ASC_NODE":147.7794,"ARG_OF_PERICENTER":141.5087,"MEAN_ANOMALY":218.6634,"EPHEMERIS_TYPE":0,"CLASSIFICATION_TYPE":"U","NORAD_CAT_ID":60561,"ELEMENT_SET_NO":999,"REV_AT_EPOCH":3117,"BSTAR":0.00077653,"MEAN_MOTION_DOT":0.00019827,"MEAN_MOTION_DDOT":0},{"OBJECT_NAME":"FLOCK 4BE-19","OBJECT_ID":"2024-149CZ","EPOCH":"2025-03-09T18:04:43.865472","MEAN_MOTION":15.26609372,"ECCENTRICITY":0.0006208,"INCLINATION":97.4134,"RA_OF_ASC_NODE":147.981,"ARG_OF_PERICENTER":146.8945,"MEAN_ANOMALY":213.2684,"EPHEMERIS_TYPE":0,"CLASSIFICATION_TYPE":"U","NORAD_CAT_ID":60563,"ELEMENT_SET_NO":999,"REV_AT_EPOCH":3118,"BSTAR":0.00081091,"MEAN_MOTION_DOT":0.00021214,"MEAN_MOTION_DDOT":0}]
